KUIPER-00112            
1 65150U 25171U   25290.93130182  .00070071  00000+0  18757-2 0  9992
2 65150  51.8755  79.4880 0005699  30.0389 330.0924 15.37371880 11600
KUIPER-00114            
1 65151U 25171V   25291.00002315 -.01778936  00000+0 -21986+0 0  9991
2 65151  51.8977  86.7033 0008538 356.0334 123.9306 14.85776495  5052
KUIPER-00115            
1 65152U 25171W   25291.00002315 -.00273280  00000+0 -17018-1 0  9996
2 65152  51.8929  81.4822 0009197  16.4004 306.6846 15.10424695  4296
KUIPER-00116            
1 65153U 25171X   25291.00002315 -.01699427  00000+0 -17122+0 0  9997
2 65153  51.8956  84.7135 0008565 341.5278  77.4429 14.94321476  5861
KUIPER-00118            
1 65154U 25171Y   25291.00002315 -.01814711  00000+0 -22450+0 0  9993
2 65154  51.8980  86.6374 0005450   5.6709 299.2307 14.85836172  3616
KUIPER-00119            
1 65155U 25171Z   25291.00002315 -.00430820  00000+0 -20260-1 0  9997
2 65155  51.8798  79.7949 0007942 340.4976  45.9511 15.21032223  5711
KUIPER-00120            
1 65762U 25217A   25290.91169197 -.00130004  00000+0 -38935-2 0  9993
2 65762  51.8643 334.5649 0009560 194.0024 166.0698 15.34391127  3453
KUIPER-00132            
1 65763U 25217B   25290.83383562  .00037780  00000+0  10824-2 0  9991
2 65763  51.8658 334.8011 0006101 175.8645 184.2392 15.35533246  3443
